{"type":"FeatureCollection","features":[{"type":"Feature","properties":{},"geometry":{"type":"LineString","coordinates":[[6.839778,47.10143],[6.840549,47.102059],[6.842261,47.103158],[6.84388,47.10426],[6.843897,47.105095],[6.842841,47.105825],[6.842824,47.105837]]}},{"type":"Feature","properties":{},"geometry":{"type":"LineString","coordinates":[[6.842798,47.105849],[6.842006,47.105999],[6.840294,47.105478],[6.839859,47.105223],[6.839612,47.104736],[6.839561,47.10415],[6.839876,47.103298],[6.839876,47.10295],[6.838982,47.101976],[6.839766,47.101489]]}}]}